[{"OBJECT_NAME":"STARLINK-3609","OBJECT_ID":"2022-017AS","EPOCH":"2026-03-09T21:20:51.749376","MEAN_MOTION":15.08838625,"ECCENTRICITY":0.00013399,"INCLINATION":53.2191,"RA_OF_ASC_NODE":338.2216,"ARG_OF_PERICENTER":105.4899,"MEAN_ANOMALY":254.6241,"EPHEMERIS_TYPE":0,"CLASSIFICATION_TYPE":"U","NORAD_CAT_ID":51808,"ELEMENT_SET_NO":999,"REV_AT_EPOCH":22399,"BSTAR":2.2737415e-5,"MEAN_MOTION_DOT":7.4e-7,"MEAN_MOTION_DDOT":0},{"OBJECT_NAME":"THOR ABLESTAR DEB","OBJECT_ID":"1961-015HM","EPOCH":"2026-03-09T12:53:31.788672","MEAN_MOTION":15.12609006,"ECCENTRICITY":0.0020802,"INCLINATION":66.4912,"RA_OF_ASC_NODE":108.7707,"ARG_OF_PERICENTER":275.236,"MEAN_ANOMALY":209.827,"EPHEMERIS_TYPE":0,"CLASSIFICATION_TYPE":"U","NORAD_CAT_ID":660,"ELEMENT_SET_NO":999,"REV_AT_EPOCH":37032,"BSTAR":0.0020976473,"MEAN_MOTION_DOT":0.00036985,"MEAN_MOTION_DDOT":0}]
